[
  {
    "OBJECT_NAME": "STARLINK-30408",
    "OBJECT_ID": "23138S",
    "EPOCH": "2025-11-10T23:56:49.932096",
    "MEAN_MOTION": 15.02536108,
    "ECCENTRICITY": 0.0001185,
    "INCLINATION": 43.0025,
    "RA_OF_ASC_NODE": 160.8401,
    "ARG_OF_PERICENTER": 265.7898,
    "MEAN_ANOMALY": 94.2809,
    "EPHEMERIS_TYPE": 0,
    "CLASSIFICATION_TYPE": "U",
    "NORAD_CAT_ID": 57824,
    "ELEMENT_SET_NO": 999,
    "REV_AT_EPOCH": 12085,
    "BSTAR": 6.9358e-05,
    "MEAN_MOTION_DOT": 7.33e-06,
    "MEAN_MOTION_DDOT": 0.0,
    "TLE_LINE1": "1 57824U 23138S   25314.99780014  .00000733  00000+0  69358-4 0  9993",
    "TLE_LINE2": "2 57824  43.0025 160.8401 0001185 265.7898  94.2809 15.02536108120851",
    "COMMENT": "Grouped by shell and plane from TLE"
  },
  {
    "OBJECT_NAME": "STARLINK-30377",
    "OBJECT_ID": "23138T",
    "EPOCH": "2025-11-10T23:32:50.062272",
    "MEAN_MOTION": 15.02538682,
    "ECCENTRICITY": 0.0001394,
    "INCLINATION": 43.0029,
    "RA_OF_ASC_NODE": 160.7184,
    "ARG_OF_PERICENTER": 269.716,
    "MEAN_ANOMALY": 90.3522,
    "EPHEMERIS_TYPE": 0,
    "CLASSIFICATION_TYPE": "U",
    "NORAD_CAT_ID": 57825,
    "ELEMENT_SET_NO": 999,
    "REV_AT_EPOCH": 12075,
    "BSTAR": 0.00026677,
    "MEAN_MOTION_DOT": 3.402e-05,
    "MEAN_MOTION_DDOT": 0.0,
    "TLE_LINE1": "1 57825U 23138T   25314.98113498  .00003402  00000+0  26677-3 0  9991",
    "TLE_LINE2": "2 57825  43.0029 160.7184 0001394 269.7160  90.3522 15.02538682120758",
    "COMMENT": "Grouped by shell and plane from TLE"
  },
  {
    "OBJECT_NAME": "STARLINK-30422",
    "OBJECT_ID": "23138U",
    "EPOCH": "2025-11-10T23:37:40.094112",
    "MEAN_MOTION": 15.02529445,
    "ECCENTRICITY": 0.0001085,
    "INCLINATION": 43.0015,
    "RA_OF_ASC_NODE": 160.7393,
    "ARG_OF_PERICENTER": 257.7592,
    "MEAN_ANOMALY": 102.3128,
    "EPHEMERIS_TYPE": 0,
    "CLASSIFICATION_TYPE": "U",
    "NORAD_CAT_ID": 57826,
    "ELEMENT_SET_NO": 999,
    "REV_AT_EPOCH": 12085,
    "BSTAR": 6.0288e-05,
    "MEAN_MOTION_DOT": 6.11e-06,
    "MEAN_MOTION_DDOT": 0.0,
    "TLE_LINE1": "1 57826U 23138U   25314.98449183  .00000611  00000+0  60288-4 0  9991",
    "TLE_LINE2": "2 57826  43.0015 160.7393 0001085 257.7592 102.3128 15.02529445120853",
    "COMMENT": "Grouped by shell and plane from TLE"
  },
  {
    "OBJECT_NAME": "STARLINK-30402",
    "OBJECT_ID": "23138V",
    "EPOCH": "2025-11-10T23:44:03.272064",
    "MEAN_MOTION": 15.02546456,
    "ECCENTRICITY": 4.75e-05,
    "INCLINATION": 43.0024,
    "RA_OF_ASC_NODE": 160.7742,
    "ARG_OF_PERICENTER": 1.336,
    "MEAN_ANOMALY": 358.7483,
    "EPHEMERIS_TYPE": 0,
    "CLASSIFICATION_TYPE": "U",
    "NORAD_CAT_ID": 57827,
    "ELEMENT_SET_NO": 999,
    "REV_AT_EPOCH": 12085,
    "BSTAR": 0.00014268,
    "MEAN_MOTION_DOT": 1.725e-05,
    "MEAN_MOTION_DDOT": 0.0,
    "TLE_LINE1": "1 57827U 23138V   25314.98892676  .00001725  00000+0  14268-3 0  9994",
    "TLE_LINE2": "2 57827  43.0024 160.7742 0000475   1.3360 358.7483 15.02546456120852",
    "COMMENT": "Grouped by shell and plane from TLE"
  },
  {
    "OBJECT_NAME": "STARLINK-30418",
    "OBJECT_ID": "23138X",
    "EPOCH": "2025-11-10T23:28:03.665280",
    "MEAN_MOTION": 15.02535216,
    "ECCENTRICITY": 0.0001136,
    "INCLINATION": 43.002,
    "RA_OF_ASC_NODE": 160.6903,
    "ARG_OF_PERICENTER": 260.57,
    "MEAN_ANOMALY": 99.5014,
    "EPHEMERIS_TYPE": 0,
    "CLASSIFICATION_TYPE": "U",
    "NORAD_CAT_ID": 57829,
    "ELEMENT_SET_NO": 999,
    "REV_AT_EPOCH": 12069,
    "BSTAR": 9.3337e-05,
    "MEAN_MOTION_DOT": 1.057e-05,
    "MEAN_MOTION_DDOT": 0.0,
    "TLE_LINE1": "1 57829U 23138X   25314.97782020  .00001057  00000+0  93337-4 0  9999",
    "TLE_LINE2": "2 57829  43.0020 160.6903 0001136 260.5700  99.5014 15.02535216120694",
    "COMMENT": "Grouped by shell and plane from TLE"
  },
  {
    "OBJECT_NAME": "STARLINK-34723",
    "OBJECT_ID": "25152A",
    "EPOCH": "2025-11-11T03:08:29.240736",
    "MEAN_MOTION": 15.05655296,
    "ECCENTRICITY": 0.0002167,
    "INCLINATION": 97.6025,
    "RA_OF_ASC_NODE": 168.5785,
    "ARG_OF_PERICENTER": 86.9857,
    "MEAN_ANOMALY": 273.1617,
    "EPHEMERIS_TYPE": 0,
    "CLASSIFICATION_TYPE": "U",
    "NORAD_CAT_ID": 64842,
    "ELEMENT_SET_NO": 999,
    "REV_AT_EPOCH": 1757,
    "BSTAR": 0.00066737,
    "MEAN_MOTION_DOT": 9.583e-05,
    "MEAN_MOTION_DDOT": 0.0,
    "TLE_LINE1": "1 64842U 25152A   25315.13089399  .00009583  00000+0  66737-3 0  9993",
    "TLE_LINE2": "2 64842  97.6025 168.5785 0002167  86.9857 273.1617 15.05655296 17575",
    "COMMENT": "Grouped by shell and plane from TLE"
  },
  {
    "OBJECT_NAME": "STARLINK-34725",
    "OBJECT_ID": "25152B",
    "EPOCH": "2025-11-11T04:32:08.748096",
    "MEAN_MOTION": 15.02090722,
    "ECCENTRICITY": 0.0004329,
    "INCLINATION": 97.6015,
    "RA_OF_ASC_NODE": 168.822,
    "ARG_OF_PERICENTER": 58.2969,
    "MEAN_ANOMALY": 301.8677,
    "EPHEMERIS_TYPE": 0,
    "CLASSIFICATION_TYPE": "U",
    "NORAD_CAT_ID": 64843,
    "ELEMENT_SET_NO": 999,
    "REV_AT_EPOCH": 1759,
    "BSTAR": 0.00013737,
    "MEAN_MOTION_DOT": 1.745e-05,
    "MEAN_MOTION_DDOT": 0.0,
    "TLE_LINE1": "1 64843U 25152B   25315.18899014  .00001745  00000+0  13737-3 0  9996",
    "TLE_LINE2": "2 64843  97.6015 168.8220 0004329  58.2969 301.8677 15.02090722 17591",
    "COMMENT": "Grouped by shell and plane from TLE"
  },
  {
    "OBJECT_NAME": "STARLINK-34709",
    "OBJECT_ID": "25152C",
    "EPOCH": "2025-11-11T04:24:15.135264",
    "MEAN_MOTION": 15.05661493,
    "ECCENTRICITY": 0.0002852,
    "INCLINATION": 97.602,
    "RA_OF_ASC_NODE": 168.6632,
    "ARG_OF_PERICENTER": 79.7559,
    "MEAN_ANOMALY": 280.3989,
    "EPHEMERIS_TYPE": 0,
    "CLASSIFICATION_TYPE": "U",
    "NORAD_CAT_ID": 64844,
    "ELEMENT_SET_NO": 999,
    "REV_AT_EPOCH": 1758,
    "BSTAR": 0.0005352,
    "MEAN_MOTION_DOT": 7.673e-05,
    "MEAN_MOTION_DDOT": 0.0,
    "TLE_LINE1": "1 64844U 25152C   25315.18350851  .00007673  00000+0  53520-3 0  9998",
    "TLE_LINE2": "2 64844  97.6020 168.6632 0002852  79.7559 280.3989 15.05661493 17583",
    "COMMENT": "Grouped by shell and plane from TLE"
  },
  {
    "OBJECT_NAME": "STARLINK-34706",
    "OBJECT_ID": "25152D",
    "EPOCH": "2025-11-11T04:40:11.986752",
    "MEAN_MOTION": 15.05659858,
    "ECCENTRICITY": 0.0002552,
    "INCLINATION": 97.6021,
    "RA_OF_ASC_NODE": 168.649,
    "ARG_OF_PERICENTER": 76.8834,
    "MEAN_ANOMALY": 283.2677,
    "EPHEMERIS_TYPE": 0,
    "CLASSIFICATION_TYPE": "U",
    "NORAD_CAT_ID": 64845,
    "ELEMENT_SET_NO": 999,
    "REV_AT_EPOCH": 1758,
    "BSTAR": 0.0005770300000000001,
    "MEAN_MOTION_DOT": 8.278e-05,
    "MEAN_MOTION_DDOT": 0.0,
    "TLE_LINE1": "1 64845U 25152D   25315.19458318  .00008278  00000+0  57703-3 0  9996",
    "TLE_LINE2": "2 64845  97.6021 168.6490 0002552  76.8834 283.2677 15.05659858 17586",
    "COMMENT": "Grouped by shell and plane from TLE"
  },
  {
    "OBJECT_NAME": "STARLINK-34736",
    "OBJECT_ID": "25152E",
    "EPOCH": "2025-11-11T03:48:22.531104",
    "MEAN_MOTION": 15.05632155,
    "ECCENTRICITY": 0.000153,
    "INCLINATION": 97.6007,
    "RA_OF_ASC_NODE": 168.6969,
    "ARG_OF_PERICENTER": 96.2844,
    "MEAN_ANOMALY": 263.8557,
    "EPHEMERIS_TYPE": 0,
    "CLASSIFICATION_TYPE": "U",
    "NORAD_CAT_ID": 64846,
    "ELEMENT_SET_NO": 999,
    "REV_AT_EPOCH": 1758,
    "BSTAR": 0.00085443,
    "MEAN_MOTION_DOT": 0.00012283,
    "MEAN_MOTION_DDOT": 0.0,
    "TLE_LINE1": "1 64846U 25152E   25315.15859411  .00012283  00000+0  85443-3 0  9995",
    "TLE_LINE2": "2 64846  97.6007 168.6969 0001530  96.2844 263.8557 15.05632155 17586",
    "COMMENT": "Grouped by shell and plane from TLE"
  },
  {
    "OBJECT_NAME": "STARLINK-34746",
    "OBJECT_ID": "25152F",
    "EPOCH": "2025-11-11T03:56:20.729184",
    "MEAN_MOTION": 15.05651724,
    "ECCENTRICITY": 0.0002352,
    "INCLINATION": 97.602,
    "RA_OF_ASC_NODE": 168.6907,
    "ARG_OF_PERICENTER": 76.1872,
    "MEAN_ANOMALY": 283.9617,
    "EPHEMERIS_TYPE": 0,
    "CLASSIFICATION_TYPE": "U",
    "NORAD_CAT_ID": 64847,
    "ELEMENT_SET_NO": 999,
    "REV_AT_EPOCH": 1758,
    "BSTAR": 0.00044080000000000004,
    "MEAN_MOTION_DOT": 6.306e-05,
    "MEAN_MOTION_DDOT": 0.0,
    "TLE_LINE1": "1 64847U 25152F   25315.16412881  .00006306  00000+0  44080-3 0  9994",
    "TLE_LINE2": "2 64847  97.6020 168.6907 0002352  76.1872 283.9617 15.05651724 17588",
    "COMMENT": "Grouped by shell and plane from TLE"
  },
  {
    "OBJECT_NAME": "STARLINK-34748",
    "OBJECT_ID": "25152G",
    "EPOCH": "2025-11-11T03:36:24.714720",
    "MEAN_MOTION": 15.05653332,
    "ECCENTRICITY": 0.0001829,
    "INCLINATION": 97.603,
    "RA_OF_ASC_NODE": 168.7068,
    "ARG_OF_PERICENTER": 85.9749,
    "MEAN_ANOMALY": 274.1687,
    "EPHEMERIS_TYPE": 0,
    "CLASSIFICATION_TYPE": "U",
    "NORAD_CAT_ID": 64848,
    "ELEMENT_SET_NO": 999,
    "REV_AT_EPOCH": 1758,
    "BSTAR": 0.00060234,
    "MEAN_MOTION_DOT": 8.642e-05,
    "MEAN_MOTION_DDOT": 0.0,
    "TLE_LINE1": "1 64848U 25152G   25315.15028605  .00008642  00000+0  60234-3 0  9995",
    "TLE_LINE2": "2 64848  97.6030 168.7068 0001829  85.9749 274.1687 15.05653332 17584",
    "COMMENT": "Grouped by shell and plane from TLE"
  },
  {
    "OBJECT_NAME": "STARLINK-34756",
    "OBJECT_ID": "25152H",
    "EPOCH": "2025-11-11T03:48:03.585312",
    "MEAN_MOTION": 15.02075009,
    "ECCENTRICITY": 0.0001193,
    "INCLINATION": 97.6031,
    "RA_OF_ASC_NODE": 169.4753,
    "ARG_OF_PERICENTER": 87.9319,
    "MEAN_ANOMALY": 272.2042,
    "EPHEMERIS_TYPE": 0,
    "CLASSIFICATION_TYPE": "U",
    "NORAD_CAT_ID": 64849,
    "ELEMENT_SET_NO": 999,
    "REV_AT_EPOCH": 1763,
    "BSTAR": 0.00021664,
    "MEAN_MOTION_DOT": 2.785e-05,
    "MEAN_MOTION_DDOT": 0.0,
    "TLE_LINE1": "1 64849U 25152H   25315.15837483  .00002785  00000+0  21664-3 0  9994",
    "TLE_LINE2": "2 64849  97.6031 169.4753 0001193  87.9319 272.2042 15.02075009 17630",
    "COMMENT": "Grouped by shell and plane from TLE"
  }
]